<?xml version="1.0" encoding="UTF-8"?>
<ndm xmlns:xsi="http://www.w3.org/2001/XMLSchema-instance" xsi:noNamespaceSchemaLocation="https://sanaregistry.org/r/ndmxml_unqualified/ndmxml-2.0.0-master-2.0.xsd">
<omm id="CCSDS_OMM_VERS" version="2.0">
<header><CREATION_DATE/><ORIGINATOR/></header><body><segment><metadata><OBJECT_NAME>ORBCOMM FM115</OBJECT_NAME><OBJECT_ID>2015-081H</OBJECT_ID><CENTER_NAME>EARTH</CENTER_NAME><REF_FRAME>TEME</REF_FRAME><TIME_SYSTEM>UTC</TIME_SYSTEM><MEAN_ELEMENT_THEORY>SGP4</MEAN_ELEMENT_THEORY></metadata><data><meanElements><EPOCH>2025-01-18T18:09:34.324128</EPOCH><MEAN_MOTION>14.61964592</MEAN_MOTION><ECCENTRICITY>.00006</ECCENTRICITY><INCLINATION>46.9999</INCLINATION><RA_OF_ASC_NODE>29.9987</RA_OF_ASC_NODE><ARG_OF_PERICENTER>332.8476</ARG_OF_PERICENTER><MEAN_ANOMALY>27.2380</MEAN_ANOMALY></meanElements><tleParameters><EPHEMERIS_TYPE>0</EPHEMERIS_TYPE><CLASSIFICATION_TYPE>U</CLASSIFICATION_TYPE><NORAD_CAT_ID>41186</NORAD_CAT_ID><ELEMENT_SET_NO>999</ELEMENT_SET_NO><REV_AT_EPOCH>48590</REV_AT_EPOCH><BSTAR>.37057E-3</BSTAR><MEAN_MOTION_DOT>.17E-4</MEAN_MOTION_DOT><MEAN_MOTION_DDOT>0</MEAN_MOTION_DDOT></tleParameters></data></segment></body></omm>
<omm id="CCSDS_OMM_VERS" version="2.0">
<header><CREATION_DATE/><ORIGINATOR/></header><body><segment><metadata><OBJECT_NAME>ORBCOMM FM108</OBJECT_NAME><OBJECT_ID>2015-081J</OBJECT_ID><CENTER_NAME>EARTH</CENTER_NAME><REF_FRAME>TEME</REF_FRAME><TIME_SYSTEM>UTC</TIME_SYSTEM><MEAN_ELEMENT_THEORY>SGP4</MEAN_ELEMENT_THEORY></metadata><data><meanElements><EPOCH>2025-01-18T13:41:51.252576</EPOCH><MEAN_MOTION>14.57652694</MEAN_MOTION><ECCENTRICITY>.0003212</ECCENTRICITY><INCLINATION>47.0040</INCLINATION><RA_OF_ASC_NODE>93.3170</RA_OF_ASC_NODE><ARG_OF_PERICENTER>319.0371</ARG_OF_PERICENTER><MEAN_ANOMALY>41.0273</MEAN_ANOMALY></meanElements><tleParameters><EPHEMERIS_TYPE>0</EPHEMERIS_TYPE><CLASSIFICATION_TYPE>U</CLASSIFICATION_TYPE><NORAD_CAT_ID>41187</NORAD_CAT_ID><ELEMENT_SET_NO>999</ELEMENT_SET_NO><REV_AT_EPOCH>48496</REV_AT_EPOCH><BSTAR>.55846E-3</BSTAR><MEAN_MOTION_DOT>.2403E-4</MEAN_MOTION_DOT><MEAN_MOTION_DDOT>0</MEAN_MOTION_DDOT></tleParameters></data></segment></body></omm>
<omm id="CCSDS_OMM_VERS" version="2.0">
<header><CREATION_DATE/><ORIGINATOR/></header><body><segment><metadata><OBJECT_NAME>ORBCOMM FM117</OBJECT_NAME><OBJECT_ID>2015-081K</OBJECT_ID><CENTER_NAME>EARTH</CENTER_NAME><REF_FRAME>TEME</REF_FRAME><TIME_SYSTEM>UTC</TIME_SYSTEM><MEAN_ELEMENT_THEORY>SGP4</MEAN_ELEMENT_THEORY></metadata><data><meanElements><EPOCH>2025-01-18T12:53:31.362720</EPOCH><MEAN_MOTION>14.57653015</MEAN_MOTION><ECCENTRICITY>.0003348</ECCENTRICITY><INCLINATION>47.0004</INCLINATION><RA_OF_ASC_NODE>92.2895</RA_OF_ASC_NODE><ARG_OF_PERICENTER>329.5151</ARG_OF_PERICENTER><MEAN_ANOMALY>30.5539</MEAN_ANOMALY></meanElements><tleParameters><EPHEMERIS_TYPE>0</EPHEMERIS_TYPE><CLASSIFICATION_TYPE>U</CLASSIFICATION_TYPE><NORAD_CAT_ID>41188</NORAD_CAT_ID><ELEMENT_SET_NO>999</ELEMENT_SET_NO><REV_AT_EPOCH>48500</REV_AT_EPOCH><BSTAR>.61264E-3</BSTAR><MEAN_MOTION_DOT>.2652E-4</MEAN_MOTION_DOT><MEAN_MOTION_DDOT>0</MEAN_MOTION_DDOT></tleParameters></data></segment></body></omm>
<omm id="CCSDS_OMM_VERS" version="2.0">
<header><CREATION_DATE/><ORIGINATOR/></header><body><segment><metadata><OBJECT_NAME>ORBCOMM FM116</OBJECT_NAME><OBJECT_ID>2015-081L</OBJECT_ID><CENTER_NAME>EARTH</CENTER_NAME><REF_FRAME>TEME</REF_FRAME><TIME_SYSTEM>UTC</TIME_SYSTEM><MEAN_ELEMENT_THEORY>SGP4</MEAN_ELEMENT_THEORY></metadata><data><meanElements><EPOCH>2025-01-18T20:53:11.402304</EPOCH><MEAN_MOTION>14.57664063</MEAN_MOTION><ECCENTRICITY>.0001046</ECCENTRICITY><INCLINATION>47.0005</INCLINATION><RA_OF_ASC_NODE>180.5695</RA_OF_ASC_NODE><ARG_OF_PERICENTER>109.0537</ARG_OF_PERICENTER><MEAN_ANOMALY>251.0462</MEAN_ANOMALY></meanElements><tleParameters><EPHEMERIS_TYPE>0</EPHEMERIS_TYPE><CLASSIFICATION_TYPE>U</CLASSIFICATION_TYPE><NORAD_CAT_ID>41189</NORAD_CAT_ID><ELEMENT_SET_NO>999</ELEMENT_SET_NO><REV_AT_EPOCH>48386</REV_AT_EPOCH><BSTAR>.3704E-3</BSTAR><MEAN_MOTION_DOT>.1537E-4</MEAN_MOTION_DOT><MEAN_MOTION_DDOT>0</MEAN_MOTION_DDOT></tleParameters></data></segment></body></omm>
</ndm>
