ORBCOMM FM115           
1 41186U 15081H   25018.75664727  .00001700  00000+0  37057-3 0  9997
2 41186  46.9999  29.9987 0000600 332.8476  27.2380 14.61964592485906
ORBCOMM FM108           
1 41187U 15081J   25018.57073209  .00002403  00000+0  55846-3 0  9994
2 41187  47.0040  93.3170 0003212 319.0371  41.0273 14.57652694484960
ORBCOMM FM117           
1 41188U 15081K   25018.53716855  .00002652  00000+0  61264-3 0  9999
2 41188  47.0004  92.2895 0003348 329.5151  30.5539 14.57653015485007
ORBCOMM FM116           
1 41189U 15081L   25018.87027086  .00001537  00000+0  37040-3 0  9994
2 41189  47.0005 180.5695 0001046 109.0537 251.0462 14.57664063483862
